[{"CCSDS_OMM_VERS":"2.0","COMMENT":"GENERATED VIA SPACE-TRACK.ORG API","CREATION_DATE":"2020-12-01T19:37:25","ORIGINATOR":"18 SPCS","OBJECT_NAME":"STARLINK-1577","OBJECT_ID":"2020-055AN","CENTER_NAME":"EARTH","REF_FRAME":"TEME","TIME_SYSTEM":"UTC","MEAN_ELEMENT_THEORY":"SGP4","EPOCH":"2020-12-01T13:08:27.893184","MEAN_MOTION":"15.06759017","ECCENTRICITY":"0.00022060","INCLINATION":"53.0230","RA_OF_ASC_NODE":"114.3992","ARG_OF_PERICENTER":"191.0995","MEAN_ANOMALY":"168.9946","EPHEMERIS_TYPE":"0","CLASSIFICATION_TYPE":"U","NORAD_CAT_ID":"46063","ELEMENT_SET_NO":"999","REV_AT_EPOCH":"1901","BSTAR":"0.00421130000000","MEAN_MOTION_DOT":"0.00063632","MEAN_MOTION_DDOT":"0.0000000000000","SEMIMAJOR_AXIS":"6924.248","PERIOD":"95.569","APOAPSIS":"547.640","PERIAPSIS":"544.585","OBJECT_TYPE":"PAYLOAD","RCS_SIZE":"LARGE","COUNTRY_CODE":"US","LAUNCH_DATE":"2020-08-07","SITE":"AFETR","DECAY_DATE":null,"FILE":"2895669","GP_ID":"166706014","TLE_LINE0":"0 STARLINK-1577","TLE_LINE1":"1 46063U 20055AN  20336.54754506 +.00063632 +00000-0 +42113-2 0  9994","TLE_LINE2":"2 46063 053.0230 114.3992 0002206 191.0995 168.9946 15.06759017019012"},{"CCSDS_OMM_VERS":"2.0","COMMENT":"GENERATED VIA SPACE-TRACK.ORG API","CREATION_DATE":"2020-12-01T19:37:25","ORIGINATOR":"18 SPCS","OBJECT_NAME":"STARLINK-1558","OBJECT_ID":"2020-055J","CENTER_NAME":"EARTH","REF_FRAME":"TEME","TIME_SYSTEM":"UTC","MEAN_ELEMENT_THEORY":"SGP4","EPOCH":"2020-12-01T13:10:40.863648","MEAN_MOTION":"15.05596926","ECCENTRICITY":"0.00017140","INCLINATION":"53.0014","RA_OF_ASC_NODE":"124.4189","ARG_OF_PERICENTER":"79.1027","MEAN_ANOMALY":"281.0154","EPHEMERIS_TYPE":"0","CLASSIFICATION_TYPE":"U","NORAD_CAT_ID":"46035","ELEMENT_SET_NO":"999","REV_AT_EPOCH":"1888","BSTAR":"0.00012602000000","MEAN_MOTION_DOT":"0.00001558","MEAN_MOTION_DDOT":"0.0000000000000","SEMIMAJOR_AXIS":"6927.810","PERIOD":"95.643","APOAPSIS":"550.863","PERIAPSIS":"548.488","OBJECT_TYPE":"PAYLOAD","RCS_SIZE":"LARGE","COUNTRY_CODE":"US","LAUNCH_DATE":"2020-08-07","SITE":"AFETR","DECAY_DATE":null,"FILE":"2895669","GP_ID":"166705894","TLE_LINE0":"0 STARLINK-1558","TLE_LINE1":"1 46035U 20055J   20336.54908407 +.00001558 +00000-0 +12602-3 0  9994","TLE_LINE2":"2 46035 053.0014 124.4189 0001714 079.1027 281.0154 15.05596926018885"},{"CCSDS_OMM_VERS":"2.0","COMMENT":"GENERATED VIA SPACE-TRACK.ORG API","CREATION_DATE":"2020-12-01T19:37:25","ORIGINATOR":"18 SPCS","OBJECT_NAME":"STARLINK-1574","OBJECT_ID":"2020-055AM","CENTER_NAME":"EARTH","REF_FRAME":"TEME","TIME_SYSTEM":"UTC","MEAN_ELEMENT_THEORY":"SGP4","EPOCH":"2020-12-01T13:14:05.415648","MEAN_MOTION":"15.06551378","ECCENTRICITY":"0.00027280","INCLINATION":"53.0201","RA_OF_ASC_NODE":"114.3877","ARG_OF_PERICENTER":"171.4699","MEAN_ANOMALY":"188.6337","EPHEMERIS_TYPE":"0","CLASSIFICATION_TYPE":"U","NORAD_CAT_ID":"46062","ELEMENT_SET_NO":"999","REV_AT_EPOCH":"1898","BSTAR":"0.00179660000000","MEAN_MOTION_DOT":"0.00026692","MEAN_MOTION_DDOT":"0.0000000000000","SEMIMAJOR_AXIS":"6924.884","PERIOD":"95.582","APOAPSIS":"548.638","PERIAPSIS":"544.860","OBJECT_TYPE":"PAYLOAD","RCS_SIZE":"LARGE","COUNTRY_CODE":"US","LAUNCH_DATE":"2020-08-07","SITE":"AFETR","DECAY_DATE":null,"FILE":"2895669","GP_ID":"166706744","TLE_LINE0":"0 STARLINK-1574","TLE_LINE1":"1 46062U 20055AM  20336.55145157 +.00026692 +00000-0 +17966-2 0  9993","TLE_LINE2":"2 46062 053.0201 114.3877 0002728 171.4699 188.6337 15.06551378018981"},{"CCSDS_OMM_VERS":"2.0","COMMENT":"GENERATED VIA SPACE-TRACK.ORG API","CREATION_DATE":"2020-12-01T19:37:25","ORIGINATOR":"18 SPCS","OBJECT_NAME":"STARLINK-1522","OBJECT_ID":"2020-055A","CENTER_NAME":"EARTH","REF_FRAME":"TEME","TIME_SYSTEM":"UTC","MEAN_ELEMENT_THEORY":"SGP4","EPOCH":"2020-12-01T13:29:49.000416","MEAN_MOTION":"15.05587310","ECCENTRICITY":"0.00021920","INCLINATION":"53.0012","RA_OF_ASC_NODE":"124.3664","ARG_OF_PERICENTER":"97.3747","MEAN_ANOMALY":"262.7490","EPHEMERIS_TYPE":"0","CLASSIFICATION_TYPE":"U","NORAD_CAT_ID":"46027","ELEMENT_SET_NO":"999","REV_AT_EPOCH":"1887","BSTAR":"0.00009238100000","MEAN_MOTION_DOT":"0.00001067","MEAN_MOTION_DDOT":"0.0000000000000","SEMIMAJOR_AXIS":"6927.840","PERIOD":"95.643","APOAPSIS":"551.224","PERIAPSIS":"548.186","OBJECT_TYPE":"PAYLOAD","RCS_SIZE":"LARGE","COUNTRY_CODE":"US","LAUNCH_DATE":"2020-08-07","SITE":"AFETR","DECAY_DATE":null,"FILE":"2895669","GP_ID":"166705209","TLE_LINE0":"0 STARLINK-1522","TLE_LINE1":"1 46027U 20055A   20336.56237269 +.00001067 +00000-0 +92381-4 0  9996","TLE_LINE2":"2 46027 053.0012 124.3664 0002192 097.3747 262.7490 15.05587310018878"},{"CCSDS_OMM_VERS":"2.0","COMMENT":"GENERATED VIA SPACE-TRACK.ORG API","CREATION_DATE":"2020-12-01T19:37:25","ORIGINATOR":"18 SPCS","OBJECT_NAME":"STARLINK-1581","OBJECT_ID":"2020-055R","CENTER_NAME":"EARTH","REF_FRAME":"TEME","TIME_SYSTEM":"UTC","MEAN_ELEMENT_THEORY":"SGP4","EPOCH":"2020-12-01T13:34:35.750784","MEAN_MOTION":"15.05582085","ECCENTRICITY":"0.00016060","INCLINATION":"53.0140","RA_OF_ASC_NODE":"124.2875","ARG_OF_PERICENTER":"78.8869","MEAN_ANOMALY":"281.2299","EPHEMERIS_TYPE":"0","CLASSIFICATION_TYPE":"U","NORAD_CAT_ID":"46042","ELEMENT_SET_NO":"999","REV_AT_EPOCH":"1884","BSTAR":"-0.00005831600000","MEAN_MOTION_DOT":"-0.00001129","MEAN_MOTION_DDOT":"0.0000000000000","SEMIMAJOR_AXIS":"6927.856","PERIOD":"95.644","APOAPSIS":"550.834","PERIAPSIS":"548.608","OBJECT_TYPE":"PAYLOAD","RCS_SIZE":"LARGE","COUNTRY_CODE":"US","LAUNCH_DATE":"2020-08-07","SITE":"AFETR","DECAY_DATE":null,"FILE":"2895669","GP_ID":"166706821","TLE_LINE0":"0 STARLINK-1581","TLE_LINE1":"1 46042U 20055R   20336.56569156 -.00001129 +00000-0 -58316-4 0  9997","TLE_LINE2":"2 46042 053.0140 124.2875 0001606 078.8869 281.2299 15.05582085018842"},{"CCSDS_OMM_VERS":"2.0","COMMENT":"GENERATED VIA SPACE-TRACK.ORG API","CREATION_DATE":"2020-12-01T19:37:25","ORIGINATOR":"18 SPCS","OBJECT_NAME":"STARLINK-1526","OBJECT_ID":"2020-055C","CENTER_NAME":"EARTH","REF_FRAME":"TEME","TIME_SYSTEM":"UTC","MEAN_ELEMENT_THEORY":"SGP4","EPOCH":"2020-12-01T13:39:22.043232","MEAN_MOTION":"15.05595922","ECCENTRICITY":"0.00021050","INCLINATION":"53.0115","RA_OF_ASC_NODE":"124.2865","ARG_OF_PERICENTER":"103.8803","MEAN_ANOMALY":"256.2420","EPHEMERIS_TYPE":"0","CLASSIFICATION_TYPE":"U","NORAD_CAT_ID":"46029","ELEMENT_SET_NO":"999","REV_AT_EPOCH":"1888","BSTAR":"0.00011198000000","MEAN_MOTION_DOT":"0.00001353","MEAN_MOTION_DDOT":"0.0000000000000","SEMIMAJOR_AXIS":"6927.814","PERIOD":"95.643","APOAPSIS":"551.137","PERIAPSIS":"548.220","OBJECT_TYPE":"PAYLOAD","RCS_SIZE":"LARGE","COUNTRY_CODE":"US","LAUNCH_DATE":"2020-08-07","SITE":"AFETR","DECAY_DATE":null,"FILE":"2895669","GP_ID":"166706519","TLE_LINE0":"0 STARLINK-1526","TLE_LINE1":"1 46029U 20055C   20336.56900513 +.00001353 +00000-0 +11198-3 0  9991","TLE_LINE2":"2 46029 053.0115 124.2865 0002105 103.8803 256.2420 15.05595922018886"},{"CCSDS_OMM_VERS":"2.0","COMMENT":"GENERATED VIA SPACE-TRACK.ORG API","CREATION_DATE":"2020-12-01T19:37:25","ORIGINATOR":"18 SPCS","OBJECT_NAME":"STARLINK-1523","OBJECT_ID":"2020-055B","CENTER_NAME":"EARTH","REF_FRAME":"TEME","TIME_SYSTEM":"UTC","MEAN_ELEMENT_THEORY":"SGP4","EPOCH":"2020-12-01T13:48:56.819232","MEAN_MOTION":"15.05593921","ECCENTRICITY":"0.00023380","INCLINATION":"53.0071","RA_OF_ASC_NODE":"124.2793","ARG_OF_PERICENTER":"95.8980","MEAN_ANOMALY":"264.2274","EPHEMERIS_TYPE":"0","CLASSIFICATION_TYPE":"U","NORAD_CAT_ID":"46028","ELEMENT_SET_NO":"999","REV_AT_EPOCH":"1889","BSTAR":"0.00011903000000","MEAN_MOTION_DOT":"0.00001456","MEAN_MOTION_DDOT":"0.0000000000000","SEMIMAJOR_AXIS":"6927.820","PERIOD":"95.643","APOAPSIS":"551.304","PERIAPSIS":"548.065","OBJECT_TYPE":"PAYLOAD","RCS_SIZE":"LARGE","COUNTRY_CODE":"US","LAUNCH_DATE":"2020-08-07","SITE":"AFETR","DECAY_DATE":null,"FILE":"2895669","GP_ID":"166706385","TLE_LINE0":"0 STARLINK-1523","TLE_LINE1":"1 46028U 20055B   20336.57565763 +.00001456 +00000-0 +11903-3 0  9993","TLE_LINE2":"2 46028 053.0071 124.2793 0002338 095.8980 264.2274 15.05593921018894"},{"CCSDS_OMM_VERS":"2.0","COMMENT":"GENERATED VIA SPACE-TRACK.ORG API","CREATION_DATE":"2020-12-01T19:37:25","ORIGINATOR":"18 SPCS","OBJECT_NAME":"STARLINK-1576","OBJECT_ID":"2020-055P","CENTER_NAME":"EARTH","REF_FRAME":"TEME","TIME_SYSTEM":"UTC","MEAN_ELEMENT_THEORY":"SGP4","EPOCH":"2020-12-01T13:53:43.859904","MEAN_MOTION":"15.05581893","ECCENTRICITY":"0.00020410","INCLINATION":"53.0035","RA_OF_ASC_NODE":"124.2706","ARG_OF_PERICENTER":"92.2614","MEAN_ANOMALY":"267.8608","EPHEMERIS_TYPE":"0","CLASSIFICATION_TYPE":"U","NORAD_CAT_ID":"46040","ELEMENT_SET_NO":"999","REV_AT_EPOCH":"1884","BSTAR":"0.00013099000000","MEAN_MOTION_DOT":"0.00001630","MEAN_MOTION_DDOT":"0.0000000000000","SEMIMAJOR_AXIS":"6927.857","PERIOD":"95.644","APOAPSIS":"551.136","PERIAPSIS":"548.308","OBJECT_TYPE":"PAYLOAD","RCS_SIZE":"LARGE","COUNTRY_CODE":"US","LAUNCH_DATE":"2020-08-07","SITE":"AFETR","DECAY_DATE":null,"FILE":"2895669","GP_ID":"166706350","TLE_LINE0":"0 STARLINK-1576","TLE_LINE1":"1 46040U 20055P   20336.57897986 +.00001630 +00000-0 +13099-3 0  9994","TLE_LINE2":"2 46040 053.0035 124.2706 0002041 092.2614 267.8608 15.05581893018848"}]